{
  "type": "FeatureCollection",
  "features": [
    {
      "type": "Feature",
      "properties": {
        "norad_id": 36371,
        "name": "COSMOS 2251 DEB",
        "group": "cosmos-2251-debris",
        "lat": -72.68709544260702,
        "lon": 93.83324599153273,
        "alt_km": 664.5482623576418,
        "timestamp": "2025-12-13T03:42:11.669274+00:00",
        "meta_object_name": "COSMOS 2251 DEB",
        "meta_object_id": "1993-036AYY",
        "meta_epoch": "2025-12-07T19:05:47.723136",
        "meta_mean_motion": 14.70448722,
        "meta_eccentricity": 0.00102244,
        "meta_inclination": 74.0118,
        "meta_ra_of_asc_node": 171.1395,
        "meta_arg_of_pericenter": 209.6534,
        "meta_mean_anomaly": 150.4058,
        "meta_ephemeris_type": 0,
        "meta_classification_type": "U",
        "meta_norad_cat_id": 36371,
        "meta_element_set_no": 999,
        "meta_rev_at_epoch": 71372,
        "meta_bstar": 0.0029870702,
        "meta_mean_motion_dot": 0.00018131,
        "meta_mean_motion_ddot": 0,
        "tle_line1": "1 36371U 93036AYY 25341.79569124  .00018131  00000+0  29871-2 0  9991",
        "tle_line2": "2 36371  74.0118 171.1395 0010224 209.6534 150.4058 14.70448722713720"
      },
      "geometry": {
        "type": "Point",
        "coordinates": [
          93.83324599153273,
          -72.68709544260702
        ]
      }
    },
    {
      "type": "Feature",
      "properties": {
        "norad_id": 36379,
        "name": "COSMOS 2251 DEB",
        "group": "cosmos-2251-debris",
        "lat": 25.69313639267797,
        "lon": -46.01048154331661,
        "alt_km": 748.8589684124181,
        "timestamp": "2025-12-13T03:42:11.669304+00:00",
        "meta_object_name": "COSMOS 2251 DEB",
        "meta_object_id": "1993-036AZG",
        "meta_epoch": "2025-12-12T04:15:51.799968",
        "meta_mean_motion": 14.36076835,
        "meta_eccentricity": 0.00445791,
        "meta_inclination": 74.0123,
        "meta_ra_of_asc_node": 307.8561,
        "meta_arg_of_pericenter": 76.9262,
        "meta_mean_anomaly": 303.3834,
        "meta_ephemeris_type": 0,
        "meta_classification_type": "U",
        "meta_norad_cat_id": 36379,
        "meta_element_set_no": 999,
        "meta_rev_at_epoch": 64820,
        "meta_bstar": 0.00045972684,
        "meta_mean_motion_dot": 1.327e-05,
        "meta_mean_motion_ddot": 0,
        "tle_line1": "1 36379U 93036AZG 25346.17768287  .00001327  00000+0  45973-3 0  9998",
        "tle_line2": "2 36379  74.0123 307.8561 0044579  76.9262 303.3834 14.36076835648205"
      },
      "geometry": {
        "type": "Point",
        "coordinates": [
          -46.01048154331661,
          25.69313639267797
        ]
      }
    },
    {
      "type": "Feature",
      "properties": {
        "norad_id": 36385,
        "name": "COSMOS 2251 DEB",
        "group": "cosmos-2251-debris",
        "lat": 32.82706150494289,
        "lon": 164.4183689514405,
        "alt_km": 609.5839480887425,
        "timestamp": "2025-12-13T03:42:11.669316+00:00",
        "meta_object_name": "COSMOS 2251 DEB",
        "meta_object_id": "1993-036AZN",
        "meta_epoch": "2025-12-11T10:47:20.100480",
        "meta_mean_motion": 14.72531354,
        "meta_eccentricity": 0.01412648,
        "meta_inclination": 73.9695,
        "meta_ra_of_asc_node": 157.0611,
        "meta_arg_of_pericenter": 331.7559,
        "meta_mean_anomaly": 27.6,
        "meta_ephemeris_type": 0,
        "meta_classification_type": "U",
        "meta_norad_cat_id": 36385,
        "meta_element_set_no": 999,
        "meta_rev_at_epoch": 85083,
        "meta_bstar": 0.0024868113,
        "meta_mean_motion_dot": 0.00018523,
        "meta_mean_motion_ddot": 0,
        "tle_line1": "1 36385U 93036AZN 25345.44953820  .00018523  00000+0  24868-2 0  9998",
        "tle_line2": "2 36385  73.9695 157.0611 0141264 331.7559  27.6000 14.72531354850832"
      },
      "geometry": {
        "type": "Point",
        "coordinates": [
          164.4183689514405,
          32.82706150494289
        ]
      }
    },
    {
      "type": "Feature",
      "properties": {
        "norad_id": 36420,
        "name": "COSMOS 2251 DEB",
        "group": "cosmos-2251-debris",
        "lat": -73.85542344296026,
        "lon": 176.12145693549166,
        "alt_km": 776.7524782925093,
        "timestamp": "2025-12-13T03:42:11.669327+00:00",
        "meta_object_name": "COSMOS 2251 DEB",
        "meta_object_id": "1993-036AZT",
        "meta_epoch": "2025-12-09T05:12:09.080064",
        "meta_mean_motion": 14.36895704,
        "meta_eccentricity": 0.001793,
        "meta_inclination": 74.0374,
        "meta_ra_of_asc_node": 281.9559,
        "meta_arg_of_pericenter": 10.5601,
        "meta_mean_anomaly": 57.255,
        "meta_ephemeris_type": 0,
        "meta_classification_type": "U",
        "meta_norad_cat_id": 36420,
        "meta_element_set_no": 999,
        "meta_rev_at_epoch": 84986,
        "meta_bstar": 0.00029505,
        "meta_mean_motion_dot": 8.48e-06,
        "meta_mean_motion_ddot": 0,
        "tle_line1": "1 36420U 93036AZT 25343.21677176  .00000848  00000+0  29505-3 0  9993",
        "tle_line2": "2 36420  74.0374 281.9559 0017930  10.5601  57.2550 14.36895704849860"
      },
      "geometry": {
        "type": "Point",
        "coordinates": [
          176.12145693549166,
          -73.85542344296026
        ]
      }
    },
    {
      "type": "Feature",
      "properties": {
        "norad_id": 36430,
        "name": "COSMOS 2251 DEB",
        "group": "cosmos-2251-debris",
        "lat": -73.17204862286505,
        "lon": 36.25501160718974,
        "alt_km": 739.4471551307806,
        "timestamp": "2025-12-13T03:42:11.669337+00:00",
        "meta_object_name": "COSMOS 2251 DEB",
        "meta_object_id": "1993-036BAD",
        "meta_epoch": "2025-12-07T15:14:59.696160",
        "meta_mean_motion": 14.27773173,
        "meta_eccentricity": 0.00973352,
        "meta_inclination": 74.0036,
        "meta_ra_of_asc_node": 117.7938,
        "meta_arg_of_pericenter": 268.8676,
        "meta_mean_anomaly": 90.1319,
        "meta_ephemeris_type": 0,
        "meta_classification_type": "U",
        "meta_norad_cat_id": 36430,
        "meta_element_set_no": 999,
        "meta_rev_at_epoch": 64484,
        "meta_bstar": 0.00083938099,
        "meta_mean_motion_dot": 2.154e-05,
        "meta_mean_motion_ddot": 0,
        "tle_line1": "1 36430U 93036BAD 25341.63541315  .00002154  00000+0  83938-3 0  9995",
        "tle_line2": "2 36430  74.0036 117.7938 0097335 268.8676  90.1319 14.27773173644845"
      },
      "geometry": {
        "type": "Point",
        "coordinates": [
          36.25501160718974,
          -73.17204862286505
        ]
      }
    },
    {
      "type": "Feature",
      "properties": {
        "norad_id": 36437,
        "name": "COSMOS 2251 DEB",
        "group": "cosmos-2251-debris",
        "lat": -14.944454813691367,
        "lon": 28.785290696812222,
        "alt_km": 660.649558719806,
        "timestamp": "2025-12-13T03:42:11.669347+00:00",
        "meta_object_name": "COSMOS 2251 DEB",
        "meta_object_id": "1993-036BAL",
        "meta_epoch": "2025-12-08T11:07:20.888544",
        "meta_mean_motion": 14.70572706,
        "meta_eccentricity": 0.00232731,
        "meta_inclination": 73.9426,
        "meta_ra_of_asc_node": 42.346,
        "meta_arg_of_pericenter": 273.808,
        "meta_mean_anomaly": 86.043,
        "meta_ephemeris_type": 0,
        "meta_classification_type": "U",
        "meta_norad_cat_id": 36437,
        "meta_element_set_no": 999,
        "meta_rev_at_epoch": 65988,
        "meta_bstar": 0.0019430699,
        "meta_mean_motion_dot": 0.00011844,
        "meta_mean_motion_ddot": 0,
        "tle_line1": "1 36437U 93036BAL 25342.46343621  .00011844  00000+0  19431-2 0  9996",
        "tle_line2": "2 36437  73.9426  42.3460 0023273 273.8080  86.0430 14.70572706659886"
      },
      "geometry": {
        "type": "Point",
        "coordinates": [
          28.785290696812222,
          -14.944454813691367
        ]
      }
    },
    {
      "type": "Feature",
      "properties": {
        "norad_id": 36439,
        "name": "COSMOS 2251 DEB",
        "group": "cosmos-2251-debris",
        "lat": 73.46915095589824,
        "lon": 140.4235623173194,
        "alt_km": 1038.2555578084812,
        "timestamp": "2025-12-13T03:42:11.669357+00:00",
        "meta_object_name": "COSMOS 2251 DEB",
        "meta_object_id": "1993-036BAN",
        "meta_epoch": "2025-12-11T12:04:38.629632",
        "meta_mean_motion": 13.47792153,
        "meta_eccentricity": 0.04277143,
        "meta_inclination": 73.9683,
        "meta_ra_of_asc_node": 38.6892,
        "meta_arg_of_pericenter": 10.8049,
        "meta_mean_anomaly": 350.189,
        "meta_ephemeris_type": 0,
        "meta_classification_type": "U",
        "meta_norad_cat_id": 36439,
        "meta_element_set_no": 999,
        "meta_rev_at_epoch": 58596,
        "meta_bstar": 0.0014143946,
        "meta_mean_motion_dot": 1.502e-05,
        "meta_mean_motion_ddot": 0,
        "tle_line1": "1 36439U 93036BAN 25345.50322488  .00001502  00000+0  14144-2 0  9990",
        "tle_line2": "2 36439  73.9683  38.6892 0427714  10.8049 350.1890 13.47792153585967"
      },
      "geometry": {
        "type": "Point",
        "coordinates": [
          140.4235623173194,
          73.46915095589824
        ]
      }
    }
  ]
}